GLOBALSTAR M075         
1 37192U 10054E   25082.74811532 -.00000094  00000+0  54476-4 0  9993
2 37192  51.9938  81.6764 0000319  99.3504  71.4688 12.62262640665589
GLOBALSTAR M073         
1 37193U 10054F   25082.51250984 -.00000040  00000+0  35782-3 0  9996
2 37193  52.0095 356.1531 0000686  87.9883  89.5724 12.62269478667060
GLOBALSTAR M083         
1 37739U 11033A   25082.88528212 -.00000051  00000+0  29399-3 0  9991
2 37739  51.9861 303.8659 0000900  79.7593 293.9529 12.62261125636444
GLOBALSTAR M088         
1 37740U 11033B   25082.62110991 -.00000090  00000+0  76525-4 0  9993
2 37740  51.9724 210.2294 0000745 104.2507 269.0671 12.62264509631598
GLOBALSTAR M091         
1 37741U 11033C   25082.55540160 -.00000082  00000+0  11953-3 0  9995
2 37741  51.9990 173.8341 0000692  92.5880 281.1559 12.62266332632378
GLOBALSTAR M085         
1 37742U 11033D   25082.57394486 -.00000091  00000+0  72827-4 0  9994
2 37742  51.9846 124.8914 0000505  93.2773  64.8784 12.62266715632880
GLOBALSTAR M081         
1 37743U 11033E   25082.60148760 -.00000085  00000+0  10747-3 0  9996
2 37743  51.9940 127.5416 0000622 108.9930  54.6043 12.62262013633032
GLOBALSTAR M089         
1 37744U 11033F   25082.05972934 -.00000084  00000+0  10781-3 0  9991
2 37744  51.9918  83.4329 0000364 137.7934 262.8371 12.62267693633810
